[{"OBJECT_NAME":"TRANSPORTER-14 OBJECT BQ","OBJECT_ID":"2025-135BQ","EPOCH":"2026-03-09T20:36:52.305408","MEAN_MOTION":14.93678151,"ECCENTRICITY":0.00041936,"INCLINATION":97.7587,"RA_OF_ASC_NODE":184.4597,"ARG_OF_PERICENTER":311.7137,"MEAN_ANOMALY":48.3724,"EPHEMERIS_TYPE":0,"CLASSIFICATION_TYPE":"U","NORAD_CAT_ID":64590,"ELEMENT_SET_NO":999,"REV_AT_EPOCH":3907,"BSTAR":0.00032633382,"MEAN_MOTION_DOT":3.394e-5,"MEAN_MOTION_DDOT":0},{"OBJECT_NAME":"SCOUT X-4 R\/B","OBJECT_ID":"1965-101B","EPOCH":"2026-03-09T17:10:13.574496","MEAN_MOTION":14.9141233,"ECCENTRICITY":0.0006189,"INCLINATION":75.8427,"RA_OF_ASC_NODE":166.1466,"ARG_OF_PERICENTER":28.3515,"MEAN_ANOMALY":331.8013,"EPHEMERIS_TYPE":0,"CLASSIFICATION_TYPE":"U","NORAD_CAT_ID":1815,"ELEMENT_SET_NO":999,"REV_AT_EPOCH":5339,"BSTAR":0.00037236868,"MEAN_MOTION_DOT":3.702e-5,"MEAN_MOTION_DDOT":0}]
